{
  "type": "FeatureCollection",
  "locale": "zh-CN",
  "features": [
    {
      "type": "Feature",
      "id": "570841a0-1645-59a3-bea7-a47bc84c1630",
      "geometry": {
        "type": "Point",
        "coordinates": [
          108.942,
          34.261
        ]
      },
      "properties": {
        "kind": "place",
        "slug": "changan",
        "title": "长安",
        "summary": "长安把宫廷、国家教育、寺院、道观、市场和国际旅行者压缩在同一座城市中。",
        "tradition": "convergence",
        "placeReality": "real_historical",
        "coordinateConfidence": "centroid",
        "evidenceLayer": "historical_documented",
        "sourceId": "source:sui-tang-changan-urban-study"
      }
    },
    {
      "type": "Feature",
      "id": "0dafc415-232a-5e18-b63b-4044a09e519f",
      "geometry": {
        "type": "Point",
        "coordinates": [
          94.662,
          40.142
        ]
      },
      "properties": {
        "kind": "place",
        "slug": "dunhuang",
        "title": "敦煌",
        "summary": "敦煌把佛教艺术、文本保存、交通路线和多语文化连接起来。",
        "tradition": "buddhism",
        "placeReality": "approximate_region",
        "coordinateConfidence": "centroid",
        "evidenceLayer": "historical_documented",
        "sourceId": "source:historical-geography"
      }
    },
    {
      "type": "Feature",
      "id": "7e7d7d0d-8007-59c5-ac23-2ca12194d28b",
      "geometry": {
        "type": "Point",
        "coordinates": [
          108.959444,
          34.219722
        ]
      },
      "properties": {
        "kind": "place",
        "slug": "great-wild-goose-pagoda-site",
        "title": "大雁塔遗址",
        "summary": "大雁塔遗址把玄奘、译经、经典保存和长安城市空间连接起来。",
        "tradition": "buddhism",
        "placeReality": "real_historical",
        "coordinateConfidence": "exact",
        "evidenceLayer": "historical_documented",
        "sourceId": "source:unesco-silk-roads-corridor"
      }
    },
    {
      "type": "Feature",
      "id": "36de50b4-d018-5999-a605-c8ce790af2f5",
      "geometry": {
        "type": "Point",
        "coordinates": [
          112.466667,
          34.466667
        ]
      },
      "properties": {
        "kind": "place",
        "slug": "longmen-grottoes",
        "title": "龙门石窟",
        "summary": "龙门石窟把洛阳、皇室赞助、佛教造像与石刻题记置于同一物质场域。",
        "tradition": "buddhism",
        "placeReality": "real_historical",
        "coordinateConfidence": "exact",
        "evidenceLayer": "historical_documented",
        "sourceId": "source:unesco-longmen"
      }
    },
    {
      "type": "Feature",
      "id": "7f7e88ba-4e06-5257-b398-36ce485188f6",
      "geometry": {
        "type": "Point",
        "coordinates": [
          112.454,
          34.62
        ]
      },
      "properties": {
        "kind": "place",
        "slug": "luoyang",
        "title": "洛阳",
        "summary": "洛阳连接都城政治、交通网络、佛教传播和经典文化，是长安展厅的关键对照地点。",
        "tradition": "convergence",
        "placeReality": "real_historical",
        "coordinateConfidence": "centroid",
        "evidenceLayer": "historical_documented",
        "sourceId": "source:historical-geography"
      }
    },
    {
      "type": "Feature",
      "id": "8865370b-6cb4-5aa6-b3e8-3d72fbad9b0e",
      "geometry": {
        "type": "Point",
        "coordinates": [
          113.563,
          39.031
        ]
      },
      "properties": {
        "kind": "place",
        "slug": "mount-wutai",
        "title": "五台山",
        "summary": "五台山同时具有现实山地、寺院网络和佛教圣迹叙事的层次，适合展示双层地理如何并存。",
        "tradition": "buddhism",
        "placeReality": "real_historical",
        "coordinateConfidence": "centroid",
        "evidenceLayer": "historical_documented",
        "sourceId": "source:unesco-mount-wutai"
      }
    },
    {
      "type": "Feature",
      "id": "fa8e031e-ec10-5e1b-a9d2-8d2247ea61b5",
      "geometry": {
        "type": "Point",
        "coordinates": [
          85.443889,
          25.136667
        ]
      },
      "properties": {
        "kind": "place",
        "slug": "nalanda",
        "title": "那烂陀",
        "summary": "那烂陀让玄奘、义净等人的求法故事进入具体学习机构和跨区域知识网络，而不是停留在抽象的“印度”。",
        "tradition": "buddhism",
        "placeReality": "real_historical",
        "coordinateConfidence": "exact",
        "evidenceLayer": "historical_documented",
        "sourceId": "source:unesco-nalanda"
      }
    },
    {
      "type": "Feature",
      "id": "e3c88298-e03c-5f1d-ad68-a8fcdc99b934",
      "geometry": {
        "type": "Point",
        "coordinates": [
          83.0227,
          25.3811
        ]
      },
      "properties": {
        "kind": "place",
        "slug": "sarnath",
        "title": "鹿野苑（Sarnath）",
        "summary": "鹿野苑把释迦牟尼、初转法轮、早期僧团记忆和后世朝圣连接到一个真实的考古地点。",
        "tradition": "buddhism",
        "placeReality": "real_historical",
        "coordinateConfidence": "centroid",
        "evidenceLayer": "historical_documented",
        "sourceId": "source:sarnath-site-record"
      }
    }
  ]
}
