{
  "type": "FeatureCollection",
  "locale": "en",
  "features": [
    {
      "type": "Feature",
      "id": "570841a0-1645-59a3-bea7-a47bc84c1630",
      "geometry": {
        "type": "Point",
        "coordinates": [
          108.942,
          34.261
        ]
      },
      "properties": {
        "kind": "place",
        "slug": "changan",
        "title": "Chang'an",
        "summary": "Chang'an compressed court, state education, monasteries, Daoist institutions, markets and international travellers into one city.",
        "tradition": "convergence",
        "placeReality": "real_historical",
        "coordinateConfidence": "centroid",
        "evidenceLayer": "historical_documented",
        "sourceId": "source:sui-tang-changan-urban-study"
      }
    },
    {
      "type": "Feature",
      "id": "0dafc415-232a-5e18-b63b-4044a09e519f",
      "geometry": {
        "type": "Point",
        "coordinates": [
          94.662,
          40.142
        ]
      },
      "properties": {
        "kind": "place",
        "slug": "dunhuang",
        "title": "Dunhuang",
        "summary": "Dunhuang connects Buddhist art, textual preservation, travel routes and multilingual culture.",
        "tradition": "buddhism",
        "placeReality": "approximate_region",
        "coordinateConfidence": "centroid",
        "evidenceLayer": "historical_documented",
        "sourceId": "source:historical-geography"
      }
    },
    {
      "type": "Feature",
      "id": "7e7d7d0d-8007-59c5-ac23-2ca12194d28b",
      "geometry": {
        "type": "Point",
        "coordinates": [
          108.959444,
          34.219722
        ]
      },
      "properties": {
        "kind": "place",
        "slug": "great-wild-goose-pagoda-site",
        "title": "Great Wild Goose Pagoda site",
        "summary": "The site connects Xuanzang, translation, textual preservation and the urban space of Chang'an.",
        "tradition": "buddhism",
        "placeReality": "real_historical",
        "coordinateConfidence": "exact",
        "evidenceLayer": "historical_documented",
        "sourceId": "source:unesco-silk-roads-corridor"
      }
    },
    {
      "type": "Feature",
      "id": "36de50b4-d018-5999-a605-c8ce790af2f5",
      "geometry": {
        "type": "Point",
        "coordinates": [
          112.466667,
          34.466667
        ]
      },
      "properties": {
        "kind": "place",
        "slug": "longmen-grottoes",
        "title": "Longmen Grottoes",
        "summary": "Longmen brings Luoyang, imperial patronage, Buddhist images and inscriptions into one material landscape.",
        "tradition": "buddhism",
        "placeReality": "real_historical",
        "coordinateConfidence": "exact",
        "evidenceLayer": "historical_documented",
        "sourceId": "source:unesco-longmen"
      }
    },
    {
      "type": "Feature",
      "id": "7f7e88ba-4e06-5257-b398-36ce485188f6",
      "geometry": {
        "type": "Point",
        "coordinates": [
          112.454,
          34.62
        ]
      },
      "properties": {
        "kind": "place",
        "slug": "luoyang",
        "title": "Luoyang",
        "summary": "Luoyang connects imperial politics, transport networks, Buddhist transmission and classical culture as a counterpoint to Chang'an.",
        "tradition": "convergence",
        "placeReality": "real_historical",
        "coordinateConfidence": "centroid",
        "evidenceLayer": "historical_documented",
        "sourceId": "source:historical-geography"
      }
    },
    {
      "type": "Feature",
      "id": "8865370b-6cb4-5aa6-b3e8-3d72fbad9b0e",
      "geometry": {
        "type": "Point",
        "coordinates": [
          113.563,
          39.031
        ]
      },
      "properties": {
        "kind": "place",
        "slug": "mount-wutai",
        "title": "Mount Wutai",
        "summary": "Mount Wutai combines a real mountain landscape, monastic networks and Buddhist sacred narratives, making the museum's two-layer geography visible.",
        "tradition": "buddhism",
        "placeReality": "real_historical",
        "coordinateConfidence": "centroid",
        "evidenceLayer": "historical_documented",
        "sourceId": "source:unesco-mount-wutai"
      }
    },
    {
      "type": "Feature",
      "id": "fa8e031e-ec10-5e1b-a9d2-8d2247ea61b5",
      "geometry": {
        "type": "Point",
        "coordinates": [
          85.443889,
          25.136667
        ]
      },
      "properties": {
        "kind": "place",
        "slug": "nalanda",
        "title": "Nalanda",
        "summary": "Nalanda places the pilgrimages of Xuanzang and Yijing within a concrete institution and transregional network rather than an abstract India.",
        "tradition": "buddhism",
        "placeReality": "real_historical",
        "coordinateConfidence": "exact",
        "evidenceLayer": "historical_documented",
        "sourceId": "source:unesco-nalanda"
      }
    },
    {
      "type": "Feature",
      "id": "e3c88298-e03c-5f1d-ad68-a8fcdc99b934",
      "geometry": {
        "type": "Point",
        "coordinates": [
          83.0227,
          25.3811
        ]
      },
      "properties": {
        "kind": "place",
        "slug": "sarnath",
        "title": "Sarnath",
        "summary": "Sarnath connects Śākyamuni, the first-turning-of-the-Dharma tradition, early monastic memory and later Buddhist pilgrimage to a real archaeological place.",
        "tradition": "buddhism",
        "placeReality": "real_historical",
        "coordinateConfidence": "centroid",
        "evidenceLayer": "historical_documented",
        "sourceId": "source:sarnath-site-record"
      }
    }
  ]
}
